{"type": "FeatureCollection", "features": [ {"type": "Feature", "properties": {"norad_id": 31093, "name": "FENGYUN 1C DEB", "group": "fengyun-1c-debris", "lat": 70.78732872718021, "lon": 154.43200875924828, "alt_km": 1103.5862919364763, "timestamp": "2025-12-06T14:35:37.407190+00:00", "meta": {"OBJECT_NAME": "FENGYUN 1C DEB", "OBJECT_ID": "1999-025BGP", "EPOCH": "2025-12-05T19:05:51.065952", "MEAN_MOTION": 13.80620951, "ECCENTRICITY": 0.02081596, "INCLINATION": 98.5954, "RA_OF_ASC_NODE": 179.4149, "ARG_OF_PERICENTER": 242.0633, "MEAN_ANOMALY": 115.9311, "EPHEMERIS_TYPE": 0, "CLASSIFICATION_TYPE": "U", "NORAD_CAT_ID": 31093, "ELEMENT_SET_NO": 999, "REV_AT_EPOCH": 94411, "BSTAR": 0.00075404882, "MEAN_MOTION_DOT": 8.92e-06, "MEAN_MOTION_DDOT": 0}, "tle": {"line1": "1 31093U 99025BGP 25339.79572993  .00000892  00000+0  75405-3 0  9996", "line2": "2 31093  98.5954 179.4149 0208159 242.0633 115.9311 13.80620951944113"}}, "geometry": {"type": "Point", "coordinates": [154.43200875924828, 70.78732872718021]}}, {"type": "Feature", "properties": {"norad_id": 31094, "name": "FENGYUN 1C DEB", "group": "fengyun-1c-debris", "lat": 80.45318029025337, "lon": 140.65942477759373, "alt_km": 807.873939255921, "timestamp": "2025-12-06T14:35:37.407200+00:00", "meta": {"OBJECT_NAME": "FENGYUN 1C DEB", "OBJECT_ID": "1999-025BGQ", "EPOCH": "2025-12-06T02:12:03.584160", "MEAN_MOTION": 14.02000032, "ECCENTRICITY": 0.01064272, "INCLINATION": 98.8562, "RA_OF_ASC_NODE": 208.1342, "ARG_OF_PERICENTER": 65.3578, "MEAN_ANOMALY": 295.8628, "EPHEMERIS_TYPE": 0, "CLASSIFICATION_TYPE": "U", "NORAD_CAT_ID": 31094, "ELEMENT_SET_NO": 999, "REV_AT_EPOCH": 95526, "BSTAR": 0.0022987119, "MEAN_MOTION_DOT": 3.643e-05, "MEAN_MOTION_DDOT": 0}, "tle": {"line1": "1 31094U 99025BGQ 25340.09170815  .00003643  00000+0  22987-2 0  9992", "line2": "2 31094  98.8562 208.1342 0106427  65.3578 295.8628 14.02000032955260"}}, "geometry": {"type": "Point", "coordinates": [140.65942477759373, 80.45318029025337]}}, {"type": "Feature", "properties": {"norad_id": 31095, "name": "FENGYUN 1C DEB", "group": "fengyun-1c-debris", "lat": 63.69307838741613, "lon": -37.98835252731576, "alt_km": 1221.5128718558472, "timestamp": "2025-12-06T14:35:37.407210+00:00", "meta": {"OBJECT_NAME": "FENGYUN 1C DEB", "OBJECT_ID": "1999-025BGR", "EPOCH": "2025-12-03T05:06:12.521952", "MEAN_MOTION": 13.06661132, "ECCENTRICITY": 0.0499779, "INCLINATION": 98.5614, "RA_OF_ASC_NODE": 121.5529, "ARG_OF_PERICENTER": 214.6633, "MEAN_ANOMALY": 142.0948, "EPHEMERIS_TYPE": 0, "CLASSIFICATION_TYPE": "U", "NORAD_CAT_ID": 31095, "ELEMENT_SET_NO": 999, "REV_AT_EPOCH": 89323, "BSTAR": 0.00017519, "MEAN_MOTION_DOT": 7.3e-07, "MEAN_MOTION_DDOT": 0}, "tle": {"line1": "1 31095U 99025BGR 25337.21264493  .00000073  00000+0  17519-3 0  9999", "line2": "2 31095  98.5614 121.5529 0499779 214.6633 142.0948 13.06661132893230"}}, "geometry": {"type": "Point", "coordinates": [-37.98835252731576, 63.69307838741613]}}, {"type": "Feature", "properties": {"norad_id": 31097, "name": "FENGYUN 1C DEB", "group": "fengyun-1c-debris", "lat": -38.46287658587199, "lon": -84.01567340235498, "alt_km": 738.7459151588073, "timestamp": "2025-12-06T14:35:37.407220+00:00", "meta": {"OBJECT_NAME": "FENGYUN 1C DEB", "OBJECT_ID": "1999-025BGT", "EPOCH": "2025-12-04T14:03:11.455200", "MEAN_MOTION": 14.46732949, "ECCENTRICITY": 0.0014656, "INCLINATION": 98.8601, "RA_OF_ASC_NODE": 100.9877, "ARG_OF_PERICENTER": 294.417, "MEAN_ANOMALY": 196.5748, "EPHEMERIS_TYPE": 0, "CLASSIFICATION_TYPE": "U", "NORAD_CAT_ID": 31097, "ELEMENT_SET_NO": 999, "REV_AT_EPOCH": 96920, "BSTAR": 0.0067438, "MEAN_MOTION_DOT": 0.00024464, "MEAN_MOTION_DDOT": 0}, "tle": {"line1": "1 31097U 99025BGT 25338.58554925  .00024464  00000+0  67438-2 0  9998", "line2": "2 31097  98.8601 100.9877 0014656 294.4170 196.5748 14.46732949969200"}}, "geometry": {"type": "Point", "coordinates": [-84.01567340235498, -38.46287658587199]}}, {"type": "Feature", "properties": {"norad_id": 31098, "name": "FENGYUN 1C DEB", "group": "fengyun-1c-debris", "lat": -12.267410437275961, "lon": 100.1691524202958, "alt_km": 724.4229762064379, "timestamp": "2025-12-06T14:35:37.407230+00:00", "meta": {"OBJECT_NAME": "FENGYUN 1C DEB", "OBJECT_ID": "1999-025BGU", "EPOCH": "2025-12-05T13:49:49.699488", "MEAN_MOTION": 14.5123672, "ECCENTRICITY": 0.00143024, "INCLINATION": 98.8707, "RA_OF_ASC_NODE": 97.1353, "ARG_OF_PERICENTER": 268.8041, "MEAN_ANOMALY": 91.1514, "EPHEMERIS_TYPE": 0, "CLASSIFICATION_TYPE": "U", "NORAD_CAT_ID": 31098, "ELEMENT_SET_NO": 999, "REV_AT_EPOCH": 96853, "BSTAR": 0.0061418262, "MEAN_MOTION_DOT": 0.00024483, "MEAN_MOTION_DDOT": 0}, "tle": {"line1": "1 31098U 99025BGU 25339.57626967  .00024483  00000+0  61418-2 0  9998", "line2": "2 31098  98.8707  97.1353 0014302 268.8041  91.1514 14.51236720968532"}}, "geometry": {"type": "Point", "coordinates": [100.1691524202958, -12.267410437275961]}}, {"type": "Feature", "properties": {"norad_id": 31099, "name": "FENGYUN 1C DEB", "group": "fengyun-1c-debris", "lat": -27.684068249652928, "lon": -122.32064593647314, "alt_km": 766.307669044757, "timestamp": "2025-12-06T14:35:37.407241+00:00", "meta": {"OBJECT_NAME": "FENGYUN 1C DEB", "OBJECT_ID": "1999-025BGV", "EPOCH": "2025-12-04T15:47:08.824128", "MEAN_MOTION": 14.27901878, "ECCENTRICITY": 0.0062914, "INCLINATION": 98.9375, "RA_OF_ASC_NODE": 230.9486, "ARG_OF_PERICENTER": 305.1809, "MEAN_ANOMALY": 86.5484, "EPHEMERIS_TYPE": 0, "CLASSIFICATION_TYPE": "U", "NORAD_CAT_ID": 31099, "ELEMENT_SET_NO": 999, "REV_AT_EPOCH": 97356, "BSTAR": 0.00059391, "MEAN_MOTION_DOT": 1.455e-05, "MEAN_MOTION_DDOT": 0}, "tle": {"line1": "1 31099U 99025BGV 25338.65774102  .00001455  00000+0  59391-3 0  9994", "line2": "2 31099  98.9375 230.9486 0062914 305.1809  86.5484 14.27901878973567"}}, "geometry": {"type": "Point", "coordinates": [-122.32064593647314, -27.684068249652928]}}, {"type": "Feature", "properties": {"norad_id": 31146, "name": "FENGYUN 1C DEB", "group": "fengyun-1c-debris", "lat": -16.456813056855214, "lon": 88.46153186017972, "alt_km": 655.0225479588225, "timestamp": "2025-12-06T14:35:37.407251+00:00", "meta": {"OBJECT_NAME": "FENGYUN 1C DEB", "OBJECT_ID": "1999-025BGY", "EPOCH": "2025-12-03T06:37:17.170752", "MEAN_MOTION": 14.27671465, "ECCENTRICITY": 0.0212195, "INCLINATION": 99.0403, "RA_OF_ASC_NODE": 267.7085, "ARG_OF_PERICENTER": 194.417, "MEAN_ANOMALY": 165.0896, "EPHEMERIS_TYPE": 0, "CLASSIFICATION_TYPE": "U", "NORAD_CAT_ID": 31146, "ELEMENT_SET_NO": 999, "REV_AT_EPOCH": 96630, "BSTAR": 0.00053234, "MEAN_MOTION_DOT": 1.615e-05, "MEAN_MOTION_DDOT": 0}, "tle": {"line1": "1 31146U 99025BGY 25337.27589318  .00001615  00000+0  53234-3 0  9995", "line2": "2 31146  99.0403 267.7085 0212195 194.4170 165.0896 14.27671465966305"}}, "geometry": {"type": "Point", "coordinates": [88.46153186017972, -16.456813056855214]}}, {"type": "Feature", "properties": {"norad_id": 31148, "name": "FENGYUN 1C DEB", "group": "fengyun-1c-debris", "lat": 18.547737238086505, "lon": -137.07882739399926, "alt_km": 684.2296459566332, "timestamp": "2025-12-06T14:35:37.407261+00:00", "meta": {"OBJECT_NAME": "FENGYUN 1C DEB", "OBJECT_ID": "1999-025BHA", "EPOCH": "2025-12-06T02:51:41.714784", "MEAN_MOTION": 14.43297432, "ECCENTRICITY": 0.01368166, "INCLINATION": 98.8657, "RA_OF_ASC_NODE": 225.4144, "ARG_OF_PERICENTER": 70.2085, "MEAN_ANOMALY": 291.3796, "EPHEMERIS_TYPE": 0, "CLASSIFICATION_TYPE": "U", "NORAD_CAT_ID": 31148, "ELEMENT_SET_NO": 999, "REV_AT_EPOCH": 97435, "BSTAR": 0.0013850308, "MEAN_MOTION_DOT": 5.178e-05, "MEAN_MOTION_DDOT": 0}, "tle": {"line1": "1 31148U 99025BHA 25340.11923281  .00005178  00000+0  13850-2 0  9992", "line2": "2 31148  98.8657 225.4144 0136816  70.2085 291.3796 14.43297432974355"}}, "geometry": {"type": "Point", "coordinates": [-137.07882739399926, 18.547737238086505]}}, {"type": "Feature", "properties": {"norad_id": 31150, "name": "FENGYUN 1C DEB", "group": "fengyun-1c-debris", "lat": 80.72730640374749, "lon": -79.98908022266252, "alt_km": 842.5817213634837, "timestamp": "2025-12-06T14:35:37.407271+00:00", "meta": {"OBJECT_NAME": "FENGYUN 1C DEB", "OBJECT_ID": "1999-025BHC", "EPOCH": "2025-12-05T23:10:55.620192", "MEAN_MOTION": 14.1272714, "ECCENTRICITY": 0.0014912, "INCLINATION": 98.6859, "RA_OF_ASC_NODE": 348.8269, "ARG_OF_PERICENTER": 178.5185, "MEAN_ANOMALY": 244.3829, "EPHEMERIS_TYPE": 0, "CLASSIFICATION_TYPE": "U", "NORAD_CAT_ID": 31150, "ELEMENT_SET_NO": 999, "REV_AT_EPOCH": 96201, "BSTAR": 0.0002667451, "MEAN_MOTION_DOT": 4.53e-06, "MEAN_MOTION_DDOT": 0}, "tle": {"line1": "1 31150U 99025BHC 25339.96592153  .00000453  00000+0  26675-3 0  9997", "line2": "2 31150  98.6859 348.8269 0014912 178.5185 244.3829 14.12727140962018"}}, "geometry": {"type": "Point", "coordinates": [-79.98908022266252, 80.72730640374749]}}, {"type": "Feature", "properties": {"norad_id": 31151, "name": "FENGYUN 1C DEB", "group": "fengyun-1c-debris", "lat": -39.73129300992863, "lon": -6.52726253660326, "alt_km": 807.2437386716674, "timestamp": "2025-12-06T14:35:37.407281+00:00", "meta": {"OBJECT_NAME": "FENGYUN 1C DEB", "OBJECT_ID": "1999-025BHD", "EPOCH": "2025-12-06T06:21:36.192672", "MEAN_MOTION": 14.25699331, "ECCENTRICITY": 0.00567598, "INCLINATION": 99.1353, "RA_OF_ASC_NODE": 345.4298, "ARG_OF_PERICENTER": 43.5644, "MEAN_ANOMALY": 316.9996, "EPHEMERIS_TYPE": 0, "CLASSIFICATION_TYPE": "U", "NORAD_CAT_ID": 31151, "ELEMENT_SET_NO": 999, "REV_AT_EPOCH": 95882, "BSTAR": 0.0039997541, "MEAN_MOTION_DOT": 9.616e-05, "MEAN_MOTION_DDOT": 0}, "tle": {"line1": "1 31151U 99025BHD 25340.26500223  .00009616  00000+0  39998-2 0  9991", "line2": "2 31151  99.1353 345.4298 0056759  43.5644 316.9996 14.25699331958824"}}, "geometry": {"type": "Point", "coordinates": [-6.52726253660326, -39.73129300992863]}}]}